[
    {
        "Altitude(m)": 556565.8018484229,
        "Argument of Periapsis(deg)": 0.026491964442854003,
        "Eccentricity": 0.0,
        "Inclination(deg)": 53.0,
        "Latitude(deg)": 38.17565343601434,
        "Longitude(deg)": -139.2862257870675,
        "Mean Anomaly(deg)": 129.45737147031036,
        "RAAN(deg)": 179.96057347411207,
        "Satellite Name": "Starlink Shell 1 797",
        "Satellite Number": 797,
        "Semi-Major Axis(m)": 6931778.249405717,
        "Time(s)": 760
    },
    {
        "Altitude(m)": 556482.4323378357,
        "Argument of Periapsis(deg)": 0.02684054292236524,
        "Eccentricity": 0.0,
        "Inclination(deg)": 53.0,
        "Latitude(deg)": 37.76835488549417,
        "Longitude(deg)": -138.72290934520498,
        "Mean Anomaly(deg)": 130.08420267386708,
        "RAAN(deg)": 179.9600547040346,
        "Satellite Name": "Starlink Shell 1 797",
        "Satellite Number": 797,
        "Semi-Major Axis(m)": 6931778.249405717,
        "Time(s)": 770
    },
    {
        "Altitude(m)": 556399.1331792553,
        "Argument of Periapsis(deg)": 0.027189121401876473,
        "Eccentricity": 0.0,
        "Inclination(deg)": 53.0,
        "Latitude(deg)": 37.35795973814132,
        "Longitude(deg)": -138.1662071975151,
        "Mean Anomaly(deg)": 130.71103387742377,
        "RAAN(deg)": 179.9595359339571,
        "Satellite Name": "Starlink Shell 1 797",
        "Satellite Number": 797,
        "Semi-Major Axis(m)": 6931778.249405717,
        "Time(s)": 780
    },
    {
        "Altitude(m)": 556315.9596413873,
        "Argument of Periapsis(deg)": 0.02753769988138771,
        "Eccentricity": 0.0,
        "Inclination(deg)": 53.0,
        "Latitude(deg)": 36.94454543209438,
        "Longitude(deg)": -137.61599856979748,
        "Mean Anomaly(deg)": 131.33786508098052,
        "RAAN(deg)": 179.95901716387965,
        "Satellite Name": "Starlink Shell 1 797",
        "Satellite Number": 797,
        "Semi-Major Axis(m)": 6931778.249405717,
        "Time(s)": 790
    },
    {
        "Altitude(m)": 556232.9671385954,
        "Argument of Periapsis(deg)": 0.02788627836089895,
        "Eccentricity": 0.0,
        "Inclination(deg)": 53.0,
        "Latitude(deg)": 36.52818770191699,
        "Longitude(deg)": -137.07216332002847,
        "Mean Anomaly(deg)": 131.9646962845372,
        "RAAN(deg)": 179.95849839380216,
        "Satellite Name": "Starlink Shell 1 797",
        "Satellite Number": 797,
        "Semi-Major Axis(m)": 6931778.249405717,
        "Time(s)": 800
    },
    {
        "Altitude(m)": 556150.2112024786,
        "Argument of Periapsis(deg)": 0.02823485684041019,
        "Eccentricity": 0.0,
        "Inclination(deg)": 53.0,
        "Latitude(deg)": 36.10896060590958,
        "Longitude(deg)": -136.53458157395391,
        "Mean Anomaly(deg)": 132.59152748809393,
        "RAAN(deg)": 179.95797962372473,
        "Satellite Name": "Starlink Shell 1 797",
        "Satellite Number": 797,
        "Semi-Major Axis(m)": 6931778.249405717,
        "Time(s)": 810
    },
    {
        "Altitude(m)": 556067.7474533648,
        "Argument of Periapsis(deg)": 0.028583435319921423,
        "Eccentricity": 0.0,
        "Inclination(deg)": 53.0,
        "Latitude(deg)": 35.68693655462716,
        "Longitude(deg)": -136.00313334904624,
        "Mean Anomaly(deg)": 133.21835869165062,
        "RAAN(deg)": 179.95746085364723,
        "Satellite Name": "Starlink Shell 1 797",
        "Satellite Number": 797,
        "Semi-Major Axis(m)": 6931778.249405717,
        "Time(s)": 820
    },
    {
        "Altitude(m)": 555985.6315717051,
        "Argument of Periapsis(deg)": 0.028932013799432665,
        "Eccentricity": 0.0,
        "Inclination(deg)": 53.0,
        "Latitude(deg)": 35.262186340430056,
        "Longitude(deg)": -135.47769968029405,
        "Mean Anomaly(deg)": 133.84518989520734,
        "RAAN(deg)": 179.95694208356977,
        "Satellite Name": "Starlink Shell 1 797",
        "Satellite Number": 797,
        "Semi-Major Axis(m)": 6931778.249405717,
        "Time(s)": 830
    },
    {
        "Altitude(m)": 555903.9192693902,
        "Argument of Periapsis(deg)": 0.029280592278943897,
        "Eccentricity": 0.0,
        "Inclination(deg)": 53.0,
        "Latitude(deg)": 34.834779167903875,
        "Longitude(deg)": -134.95816222267322,
        "Mean Anomaly(deg)": 134.47202109876412,
        "RAAN(deg)": 179.95642331349228,
        "Satellite Name": "Starlink Shell 1 797",
        "Satellite Number": 797,
        "Semi-Major Axis(m)": 6931778.249405717,
        "Time(s)": 840
    },
    {
        "Altitude(m)": 555822.6662610312,
        "Argument of Periapsis(deg)": 0.029629170758455132,
        "Eccentricity": 0.0,
        "Inclination(deg)": 53.0,
        "Latitude(deg)": 34.404782685,
        "Longitude(deg)": -134.44440284374306,
        "Mean Anomaly(deg)": 135.09885230232075,
        "RAAN(deg)": 179.9559045434148,
        "Satellite Name": "Starlink Shell 1 797",
        "Satellite Number": 797,
        "Semi-Major Axis(m)": 6931778.249405717,
        "Time(s)": 850
    },
    {
        "Altitude(m)": 555741.9282351295,
        "Argument of Periapsis(deg)": 0.02997774923796637,
        "Eccentricity": 0.0,
        "Inclination(deg)": 53.0,
        "Latitude(deg)": 33.97226301476376,
        "Longitude(deg)": -133.93630488789913,
        "Mean Anomaly(deg)": 135.72568350587753,
        "RAAN(deg)": 179.95538577333733,
        "Satellite Name": "Starlink Shell 1 797",
        "Satellite Number": 797,
        "Semi-Major Axis(m)": 6931778.249405717,
        "Time(s)": 860
    },
    {
        "Altitude(m)": 555661.7608252905,
        "Argument of Periapsis(deg)": 0.030326327717477602,
        "Eccentricity": 0.0,
        "Inclination(deg)": 53.0,
        "Latitude(deg)": 33.537284787517756,
        "Longitude(deg)": -133.4337519104013,
        "Mean Anomaly(deg)": 136.35251470943416,
        "RAAN(deg)": 179.9548670032599,
        "Satellite Name": "Starlink Shell 1 797",
        "Satellite Number": 797,
        "Semi-Major Axis(m)": 6931778.249405717,
        "Time(s)": 870
    },
    {
        "Altitude(m)": 555582.2195813671,
        "Argument of Periapsis(deg)": 0.030674906196988847,
        "Eccentricity": 0.0,
        "Inclination(deg)": 53.0,
        "Latitude(deg)": 33.09991117339204,
        "Longitude(deg)": -132.9366289246092,
        "Mean Anomaly(deg)": 136.97934591299094,
        "RAAN(deg)": 179.9543482331824,
        "Satellite Name": "Starlink Shell 1 797",
        "Satellite Number": 797,
        "Semi-Major Axis(m)": 6931778.249405717,
        "Time(s)": 880
    },
    {
        "Altitude(m)": 555503.3599406203,
        "Argument of Periapsis(deg)": 0.031023484676500086,
        "Eccentricity": 0.0,
        "Inclination(deg)": 53.0,
        "Latitude(deg)": 32.660203915090975,
        "Longitude(deg)": -132.44482196050794,
        "Mean Anomaly(deg)": 137.60617711654768,
        "RAAN(deg)": 179.9538294631049,
        "Satellite Name": "Starlink Shell 1 797",
        "Satellite Number": 797,
        "Semi-Major Axis(m)": 6931778.249405717,
        "Time(s)": 890
    },
    {
        "Altitude(m)": 555425.237198871,
        "Argument of Periapsis(deg)": 0.03137206315601132,
        "Eccentricity": 0.0,
        "Inclination(deg)": 53.0,
        "Latitude(deg)": 32.21822336080208,
        "Longitude(deg)": -131.95821761597844,
        "Mean Anomaly(deg)": 138.23300832010435,
        "RAAN(deg)": 179.95331069302745,
        "Satellite Name": "Starlink Shell 1 797",
        "Satellite Number": 797,
        "Semi-Major Axis(m)": 6931778.249405717,
        "Time(s)": 900
    },
    {
        "Altitude(m)": 555347.9064817006,
        "Argument of Periapsis(deg)": 0.03172064163552255,
        "Eccentricity": 0.0,
        "Inclination(deg)": 53.0,
        "Latitude(deg)": 31.774028497162732,
        "Longitude(deg)": -131.47670411415027,
        "Mean Anomaly(deg)": 138.8598395236611,
        "RAAN(deg)": 179.95279192294996,
        "Satellite Name": "Starlink Shell 1 797",
        "Satellite Number": 797,
        "Semi-Major Axis(m)": 6931778.249405717,
        "Time(s)": 910
    },
    {
        "Altitude(m)": 555271.4227156618,
        "Argument of Periapsis(deg)": 0.0320692201150338,
        "Eccentricity": 0.0,
        "Inclination(deg)": 53.0,
        "Latitude(deg)": 31.327676982202078,
        "Longitude(deg)": -131.0001708415382,
        "Mean Anomaly(deg)": 139.48667072721776,
        "RAAN(deg)": 179.9522731528725,
        "Satellite Name": "Starlink Shell 1 797",
        "Satellite Number": 797,
        "Semi-Major Axis(m)": 6931778.249405717,
        "Time(s)": 920
    },
    {
        "Altitude(m)": 555195.8405995683,
        "Argument of Periapsis(deg)": 0.032417798594545036,
        "Eccentricity": 0.0,
        "Inclination(deg)": 53.0,
        "Latitude(deg)": 30.87922517818841,
        "Longitude(deg)": -130.52850788025833,
        "Mean Anomaly(deg)": 140.11350193077453,
        "RAAN(deg)": 179.95175438279503,
        "Satellite Name": "Starlink Shell 1 797",
        "Satellite Number": 797,
        "Semi-Major Axis(m)": 6931778.249405717,
        "Time(s)": 930
    },
    {
        "Altitude(m)": 555121.2145758277,
        "Argument of Periapsis(deg)": 0.03276637707405627,
        "Eccentricity": 0.0,
        "Inclination(deg)": 53.0,
        "Latitude(deg)": 30.42872818432152,
        "Longitude(deg)": -130.06160704760237,
        "Mean Anomaly(deg)": 140.74033313433122,
        "RAAN(deg)": 179.95123561271757,
        "Satellite Name": "Starlink Shell 1 797",
        "Satellite Number": 797,
        "Semi-Major Axis(m)": 6931778.249405717,
        "Time(s)": 940
    }
]